{
  "type": "FeatureCollection",
  "features": [
    {
      "type": "Feature",
      "properties": {
        "norad_id": 40938,
        "name": "BEIDOU-3S IGSO-2S (C56)",
        "group": "beidou",
        "lat": 38.97394585252917,
        "lon": -55.449976980277974,
        "alt_km": 35955.90242776457,
        "timestamp": "2025-12-17T09:00:17.413458+00:00",
        "meta_object_name": "BEIDOU-3S IGSO-2S (C56)",
        "meta_object_id": "2015-053A",
        "meta_epoch": "2025-12-16T17:14:16.267776",
        "meta_mean_motion": 1.00269476,
        "meta_eccentricity": 0.00605277,
        "meta_inclination": 49.5044,
        "meta_ra_of_asc_node": 260.9581,
        "meta_arg_of_pericenter": 188.7289,
        "meta_mean_anomaly": 350.4326,
        "meta_ephemeris_type": 0,
        "meta_classification_type": "U",
        "meta_norad_cat_id": 40938,
        "meta_element_set_no": 999,
        "meta_rev_at_epoch": 3752,
        "meta_bstar": 0,
        "meta_mean_motion_dot": -1.34e-06,
        "meta_mean_motion_ddot": 0,
        "tle_line1": "1 40938U 15053A   25350.71824384 -.00000134  00000+0  00000+0 0  9997",
        "tle_line2": "2 40938  49.5044 260.9581 0060527 188.7289 350.4326  1.00269476 37521"
      },
      "geometry": {
        "type": "Point",
        "coordinates": [
          -55.449976980277974,
          38.97394585252917
        ]
      }
    },
    {
      "type": "Feature",
      "properties": {
        "norad_id": 41434,
        "name": "BEIDOU-2 IGSO-6 (C13)",
        "group": "beidou",
        "lat": -59.59302407824668,
        "lon": -39.944355528342754,
        "alt_km": 35604.399493212986,
        "timestamp": "2025-12-17T09:00:17.413471+00:00",
        "meta_object_name": "BEIDOU-2 IGSO-6 (C13)",
        "meta_object_id": "2016-021A",
        "meta_epoch": "2025-12-11T15:29:12.615360",
        "meta_mean_motion": 1.00293077,
        "meta_eccentricity": 0.00608616,
        "meta_inclination": 59.9644,
        "meta_ra_of_asc_node": 39.9082,
        "meta_arg_of_pericenter": 229.9753,
        "meta_mean_anomaly": 135.9177,
        "meta_ephemeris_type": 0,
        "meta_classification_type": "U",
        "meta_norad_cat_id": 41434,
        "meta_element_set_no": 999,
        "meta_rev_at_epoch": 3560,
        "meta_bstar": 0,
        "meta_mean_motion_dot": -1.62e-06,
        "meta_mean_motion_ddot": 0,
        "tle_line1": "1 41434U 16021A   25345.64528490 -.00000162  00000+0  00000+0 0  9991",
        "tle_line2": "2 41434  59.9644  39.9082 0060861 229.9753 135.9177  1.00293077 35600"
      },
      "geometry": {
        "type": "Point",
        "coordinates": [
          -39.944355528342754,
          -59.59302407824668
        ]
      }
    },
    {
      "type": "Feature",
      "properties": {
        "norad_id": 41586,
        "name": "BEIDOU-2 G7 (C03)",
        "group": "beidou",
        "lat": -1.7637717203953631,
        "lon": -28.29614482472237,
        "alt_km": 35789.53205219416,
        "timestamp": "2025-12-17T09:00:17.413484+00:00",
        "meta_object_name": "BEIDOU-2 G7 (C03)",
        "meta_object_id": "2016-037A",
        "meta_epoch": "2025-12-16T21:14:09.225600",
        "meta_mean_motion": 1.00273338,
        "meta_eccentricity": 0.00050451,
        "meta_inclination": 1.767,
        "meta_ra_of_asc_node": 67.812,
        "meta_arg_of_pericenter": 3.4551,
        "meta_mean_anomaly": 83.4859,
        "meta_ephemeris_type": 0,
        "meta_classification_type": "U",
        "meta_norad_cat_id": 41586,
        "meta_element_set_no": 999,
        "meta_rev_at_epoch": 506,
        "meta_bstar": 0,
        "meta_mean_motion_dot": -3.3e-06,
        "meta_mean_motion_ddot": 0,
        "tle_line1": "1 41586U 16037A   25350.88482900 -.00000330  00000+0  00000+0 0  9990",
        "tle_line2": "2 41586   1.7670  67.8120 0005045   3.4551  83.4859  1.00273338  5068"
      },
      "geometry": {
        "type": "Point",
        "coordinates": [
          -28.29614482472237,
          -1.7637717203953631
        ]
      }
    },
    {
      "type": "Feature",
      "properties": {
        "norad_id": 43001,
        "name": "BEIDOU-3 M1 (C19)",
        "group": "beidou",
        "lat": -0.7294789598989729,
        "lon": -110.42644441056898,
        "alt_km": 21542.224838488168,
        "timestamp": "2025-12-17T09:00:17.413496+00:00",
        "meta_object_name": "BEIDOU-3 M1 (C19)",
        "meta_object_id": "2017-069A",
        "meta_epoch": "2025-12-15T11:51:52.212384",
        "meta_mean_motion": 1.86231324,
        "meta_eccentricity": 0.00094078,
        "meta_inclination": 56.5296,
        "meta_ra_of_asc_node": 69.1425,
        "meta_arg_of_pericenter": 302.6057,
        "meta_mean_anomaly": 57.3228,
        "meta_ephemeris_type": 0,
        "meta_classification_type": "U",
        "meta_norad_cat_id": 43001,
        "meta_element_set_no": 999,
        "meta_rev_at_epoch": 5518,
        "meta_bstar": 0,
        "meta_mean_motion_dot": -8.2e-07,
        "meta_mean_motion_ddot": 0,
        "tle_line1": "1 43001U 17069A   25349.49435431 -.00000082  00000+0  00000+0 0  9996",
        "tle_line2": "2 43001  56.5296  69.1425 0009407 302.6057  57.3228  1.86231324 55189"
      },
      "geometry": {
        "type": "Point",
        "coordinates": [
          -110.42644441056898,
          -0.7294789598989729
        ]
      }
    },
    {
      "type": "Feature",
      "properties": {
        "norad_id": 43002,
        "name": "BEIDOU-3 M2 (C20)",
        "group": "beidou",
        "lat": -34.13516594791287,
        "lon": -84.26995282401047,
        "alt_km": 21538.125553059494,
        "timestamp": "2025-12-17T09:00:17.413507+00:00",
        "meta_object_name": "BEIDOU-3 M2 (C20)",
        "meta_object_id": "2017-069B",
        "meta_epoch": "2025-12-15T23:16:20.544672",
        "meta_mean_motion": 1.86230882,
        "meta_eccentricity": 0.00064213,
        "meta_inclination": 56.5297,
        "meta_ra_of_asc_node": 69.1629,
        "meta_arg_of_pericenter": 331.0436,
        "meta_mean_anomaly": 28.9409,
        "meta_ephemeris_type": 0,
        "meta_classification_type": "U",
        "meta_norad_cat_id": 43002,
        "meta_element_set_no": 999,
        "meta_rev_at_epoch": 5518,
        "meta_bstar": 0,
        "meta_mean_motion_dot": -8.1e-07,
        "meta_mean_motion_ddot": 0,
        "tle_line1": "1 43002U 17069B   25349.96968223 -.00000081  00000+0  00000+0 0  9998",
        "tle_line2": "2 43002  56.5297  69.1629 0006421 331.0436  28.9409  1.86230882 55180"
      },
      "geometry": {
        "type": "Point",
        "coordinates": [
          -84.26995282401047,
          -34.13516594791287
        ]
      }
    },
    {
      "type": "Feature",
      "properties": {
        "norad_id": 43107,
        "name": "BEIDOU-3 M7 (C27)",
        "group": "beidou",
        "lat": 27.583145654522035,
        "lon": -29.4877179002467,
        "alt_km": 21518.55707271832,
        "timestamp": "2025-12-17T09:00:17.413518+00:00",
        "meta_object_name": "BEIDOU-3 M7 (C27)",
        "meta_object_id": "2018-003A",
        "meta_epoch": "2025-12-13T13:33:25.741728",
        "meta_mean_motion": 1.86232202,
        "meta_eccentricity": 0.00026561,
        "meta_inclination": 54.4958,
        "meta_ra_of_asc_node": 308.7854,
        "meta_arg_of_pericenter": 70.3198,
        "meta_mean_anomaly": 289.6984,
        "meta_ephemeris_type": 0,
        "meta_classification_type": "U",
        "meta_norad_cat_id": 43107,
        "meta_element_set_no": 999,
        "meta_rev_at_epoch": 5389,
        "meta_bstar": 0,
        "meta_mean_motion_dot": -9.8e-07,
        "meta_mean_motion_ddot": 0,
        "tle_line1": "1 43107U 18003A   25347.56488127 -.00000098  00000+0  00000+0 0  9995",
        "tle_line2": "2 43107  54.4958 308.7854 0002656  70.3198 289.6984  1.86232202 53891"
      },
      "geometry": {
        "type": "Point",
        "coordinates": [
          -29.4877179002467,
          27.583145654522035
        ]
      }
    },
    {
      "type": "Feature",
      "properties": {
        "norad_id": 43108,
        "name": "BEIDOU-3 M8 (C28)",
        "group": "beidou",
        "lat": 50.54912702782154,
        "lon": 8.747164775744507,
        "alt_km": 21534.104956282205,
        "timestamp": "2025-12-17T09:00:17.413529+00:00",
        "meta_object_name": "BEIDOU-3 M8 (C28)",
        "meta_object_id": "2018-003B",
        "meta_epoch": "2025-12-15T15:46:56.352288",
        "meta_mean_motion": 1.86230781,
        "meta_eccentricity": 0.00047156,
        "meta_inclination": 54.4868,
        "meta_ra_of_asc_node": 308.6954,
        "meta_arg_of_pericenter": 275.6738,
        "meta_mean_anomaly": 84.2592,
        "meta_ephemeris_type": 0,
        "meta_classification_type": "U",
        "meta_norad_cat_id": 43108,
        "meta_element_set_no": 999,
        "meta_rev_at_epoch": 5394,
        "meta_bstar": 0,
        "meta_mean_motion_dot": -9.9e-07,
        "meta_mean_motion_ddot": 0,
        "tle_line1": "1 43108U 18003B   25349.65759667 -.00000099  00000+0  00000+0 0  9999",
        "tle_line2": "2 43108  54.4868 308.6954 0004715 275.6738  84.2592  1.86230781 53940"
      },
      "geometry": {
        "type": "Point",
        "coordinates": [
          8.747164775744507,
          50.54912702782154
        ]
      }
    }
  ]
}